{
  "type": "FeatureCollection",
  "features": [
    {
      "type": "Feature",
      "properties": {
        "norad_id": 66683,
        "name": "TRANSPORTER-15T",
        "group": "last-30-days",
        "lat": 56.40807016293866,
        "lon": 60.1199977081677,
        "alt_km": 512.6689625737545,
        "timestamp": "2025-12-25T22:42:15.707891+00:00",
        "meta_object_name": "TRANSPORTER-15T",
        "meta_object_id": "2025-276T",
        "meta_epoch": "2025-12-25T17:42:14.751072",
        "meta_mean_motion": 15.17066434,
        "meta_eccentricity": 0.000486,
        "meta_inclination": 97.4444,
        "meta_ra_of_asc_node": 71.269,
        "meta_arg_of_pericenter": 231.0703,
        "meta_mean_anomaly": 129.0097,
        "meta_ephemeris_type": 0,
        "meta_classification_type": "U",
        "meta_norad_cat_id": 66683,
        "meta_element_set_no": 999,
        "meta_rev_at_epoch": 409,
        "meta_bstar": 0.00042324,
        "meta_mean_motion_dot": 8.318e-05,
        "meta_mean_motion_ddot": 0,
        "tle_line1": "1 66683U 25276T   25359.73767073  .00008318  00000+0  42324-3 0  9992",
        "tle_line2": "2 66683  97.4444  71.2690 0004860 231.0703 129.0097 15.17066434  4090"
      },
      "geometry": {
        "type": "Point",
        "coordinates": [
          60.1199977081677,
          56.40807016293866
        ]
      }
    },
    {
      "type": "Feature",
      "properties": {
        "norad_id": 66684,
        "name": "TRANSPORTER-15U",
        "group": "last-30-days",
        "lat": 75.71563860167865,
        "lon": 40.57766812868573,
        "alt_km": 509.28878491243995,
        "timestamp": "2025-12-25T22:42:15.707901+00:00",
        "meta_object_name": "TRANSPORTER-15U",
        "meta_object_id": "2025-276U",
        "meta_epoch": "2025-12-25T17:36:52.407360",
        "meta_mean_motion": 15.17387547,
        "meta_eccentricity": 0.0004622,
        "meta_inclination": 97.4469,
        "meta_ra_of_asc_node": 71.2823,
        "meta_arg_of_pericenter": 227.2799,
        "meta_mean_anomaly": 132.8046,
        "meta_ephemeris_type": 0,
        "meta_classification_type": "U",
        "meta_norad_cat_id": 66684,
        "meta_element_set_no": 999,
        "meta_rev_at_epoch": 409,
        "meta_bstar": 0.00056238,
        "meta_mean_motion_dot": 0.0001118,
        "meta_mean_motion_ddot": 0,
        "tle_line1": "1 66684U 25276U   25359.73393990  .00011180  00000+0  56238-3 0  9996",
        "tle_line2": "2 66684  97.4469  71.2823 0004622 227.2799 132.8046 15.17387547  4091"
      },
      "geometry": {
        "type": "Point",
        "coordinates": [
          40.57766812868573,
          75.71563860167865
        ]
      }
    },
    {
      "type": "Feature",
      "properties": {
        "norad_id": 66685,
        "name": "TRANSPORTER-15V",
        "group": "last-30-days",
        "lat": 81.83966786717893,
        "lon": 5.765627588268787,
        "alt_km": 508.4203617323856,
        "timestamp": "2025-12-25T22:42:15.707913+00:00",
        "meta_object_name": "TRANSPORTER-15V",
        "meta_object_id": "2025-276V",
        "meta_epoch": "2025-12-25T17:34:34.419648",
        "meta_mean_motion": 15.175544,
        "meta_eccentricity": 0.0004021,
        "meta_inclination": 97.4413,
        "meta_ra_of_asc_node": 71.2655,
        "meta_arg_of_pericenter": 250.3913,
        "meta_mean_anomaly": 109.6886,
        "meta_ephemeris_type": 0,
        "meta_classification_type": "U",
        "meta_norad_cat_id": 66685,
        "meta_element_set_no": 999,
        "meta_rev_at_epoch": 409,
        "meta_bstar": 0.00076067,
        "meta_mean_motion_dot": 0.00015226,
        "meta_mean_motion_ddot": 0,
        "tle_line1": "1 66685U 25276V   25359.73234282  .00015226  00000+0  76067-3 0  9992",
        "tle_line2": "2 66685  97.4413  71.2655 0004021 250.3913 109.6886 15.17554400  4090"
      },
      "geometry": {
        "type": "Point",
        "coordinates": [
          5.765627588268787,
          81.83966786717893
        ]
      }
    },
    {
      "type": "Feature",
      "properties": {
        "norad_id": 66686,
        "name": "TRANSPORTER-15W",
        "group": "last-30-days",
        "lat": 74.17631122531026,
        "lon": 44.00865524953762,
        "alt_km": 516.2438188721708,
        "timestamp": "2025-12-25T22:42:15.707927+00:00",
        "meta_object_name": "TRANSPORTER-15W",
        "meta_object_id": "2025-276W",
        "meta_epoch": "2025-12-24T16:18:47.855520",
        "meta_mean_motion": 15.18035485,
        "meta_eccentricity": 0.00181838,
        "meta_inclination": 97.4405,
        "meta_ra_of_asc_node": 70.2223,
        "meta_arg_of_pericenter": 243.6801,
        "meta_mean_anomaly": 116.2566,
        "meta_ephemeris_type": 0,
        "meta_classification_type": "U",
        "meta_norad_cat_id": 66686,
        "meta_element_set_no": 999,
        "meta_rev_at_epoch": 393,
        "meta_bstar": 0.0029615296,
        "meta_mean_motion_dot": 0.00060911,
        "meta_mean_motion_ddot": 0,
        "tle_line1": "1 66686U 25276W   25358.67972055  .00060911  00000+0  29615-2 0  9999",
        "tle_line2": "2 66686  97.4405  70.2223 0018183 243.6801 116.2566 15.18035485  3936"
      },
      "geometry": {
        "type": "Point",
        "coordinates": [
          44.00865524953762,
          74.17631122531026
        ]
      }
    },
    {
      "type": "Feature",
      "properties": {
        "norad_id": 66687,
        "name": "TRANSPORTER-15X",
        "group": "last-30-days",
        "lat": 28.670408173145614,
        "lon": 67.34229414473464,
        "alt_km": 508.9431860780951,
        "timestamp": "2025-12-25T22:42:15.707937+00:00",
        "meta_object_name": "TRANSPORTER-15X",
        "meta_object_id": "2025-276X",
        "meta_epoch": "2025-12-25T17:49:38.815968",
        "meta_mean_motion": 15.1677782,
        "meta_eccentricity": 0.0008092,
        "meta_inclination": 97.4384,
        "meta_ra_of_asc_node": 71.2397,
        "meta_arg_of_pericenter": 44.7786,
        "meta_mean_anomaly": 315.4099,
        "meta_ephemeris_type": 0,
        "meta_classification_type": "U",
        "meta_norad_cat_id": 66687,
        "meta_element_set_no": 999,
        "meta_rev_at_epoch": 409,
        "meta_bstar": 0.00067169,
        "meta_mean_motion_dot": 0.00013146,
        "meta_mean_motion_ddot": 0,
        "tle_line1": "1 66687U 25276X   25359.74281037  .00013146  00000+0  67169-3 0  9997",
        "tle_line2": "2 66687  97.4384  71.2397 0008092  44.7786 315.4099 15.16777820  4092"
      },
      "geometry": {
        "type": "Point",
        "coordinates": [
          67.34229414473464,
          28.670408173145614
        ]
      }
    },
    {
      "type": "Feature",
      "properties": {
        "norad_id": 66688,
        "name": "TRANSPORTER-15Y",
        "group": "last-30-days",
        "lat": 66.07346295929463,
        "lon": 54.33701501005666,
        "alt_km": 510.62494661077835,
        "timestamp": "2025-12-25T22:42:15.707947+00:00",
        "meta_object_name": "TRANSPORTER-15Y",
        "meta_object_id": "2025-276Y",
        "meta_epoch": "2025-12-25T12:54:40.837824",
        "meta_mean_motion": 15.17117879,
        "meta_eccentricity": 0.0003764,
        "meta_inclination": 97.4426,
        "meta_ra_of_asc_node": 71.0715,
        "meta_arg_of_pericenter": 234.2435,
        "meta_mean_anomaly": 125.8449,
        "meta_ephemeris_type": 0,
        "meta_classification_type": "U",
        "meta_norad_cat_id": 66688,
        "meta_element_set_no": 999,
        "meta_rev_at_epoch": 406,
        "meta_bstar": 0.00056854,
        "meta_mean_motion_dot": 0.00011216,
        "meta_mean_motion_ddot": 0,
        "tle_line1": "1 66688U 25276Y   25359.53797266  .00011216  00000+0  56854-3 0  9996",
        "tle_line2": "2 66688  97.4426  71.0715 0003764 234.2435 125.8449 15.17117879  4062"
      },
      "geometry": {
        "type": "Point",
        "coordinates": [
          54.33701501005666,
          66.07346295929463
        ]
      }
    },
    {
      "type": "Feature",
      "properties": {
        "norad_id": 66689,
        "name": "TRANSPORTER-15Z",
        "group": "last-30-days",
        "lat": -60.46667951646066,
        "lon": -121.79903104691738,
        "alt_km": 440.295126272541,
        "timestamp": "2025-12-25T22:42:15.707956+00:00",
        "meta_object_name": "TRANSPORTER-15Z",
        "meta_object_id": "2025-276Z",
        "meta_epoch": "2025-12-22T21:27:46.425312",
        "meta_mean_motion": 15.23073772,
        "meta_eccentricity": 0.00272271,
        "meta_inclination": 97.4409,
        "meta_ra_of_asc_node": 68.4858,
        "meta_arg_of_pericenter": 260.8557,
        "meta_mean_anomaly": 98.9599,
        "meta_ephemeris_type": 0,
        "meta_classification_type": "U",
        "meta_norad_cat_id": 66689,
        "meta_element_set_no": 999,
        "meta_rev_at_epoch": 366,
        "meta_bstar": 0.086131248,
        "meta_mean_motion_dot": 0.02294864,
        "meta_mean_motion_ddot": 0,
        "tle_line1": "1 66689U 25276Z   25356.89428733  .02294864  00000+0  86131-1 0  9996",
        "tle_line2": "2 66689  97.4409  68.4858 0027227 260.8557  98.9599 15.23073772  3663"
      },
      "geometry": {
        "type": "Point",
        "coordinates": [
          -121.79903104691738,
          -60.46667951646066
        ]
      }
    }
  ]
}